{
  "links" : {
    "next" : "https://api.nasa.gov/neo/rest/v1/feed?start_date=2007-06-09&end_date=2007-06-09&detailed=true&api_key=t0TVs3DtDT2H8Oy2Zy8m2eVrNsAVKAexjcZXUckd",
    "prev" : "https://api.nasa.gov/neo/rest/v1/feed?start_date=2007-06-07&end_date=2007-06-07&detailed=true&api_key=t0TVs3DtDT2H8Oy2Zy8m2eVrNsAVKAexjcZXUckd",
    "self" : "https://api.nasa.gov/neo/rest/v1/feed?start_date=2007-06-08&end_date=2007-06-08&detailed=true&api_key=t0TVs3DtDT2H8Oy2Zy8m2eVrNsAVKAexjcZXUckd"
  },
  "element_count" : 8,
  "near_earth_objects" : {
    "2007-06-08" : [ {
      "links" : {
        "self" : "https://api.nasa.gov/neo/rest/v1/neo/3742333?api_key=t0TVs3DtDT2H8Oy2Zy8m2eVrNsAVKAexjcZXUckd"
      },
      "neo_reference_id" : "3742333",
      "name" : "(2016 CY135)",
      "nasa_jpl_url" : "http://ssd.jpl.nasa.gov/sbdb.cgi?sstr=3742333",
      "absolute_magnitude_h" : 24.5,
      "estimated_diameter" : {
        "kilometers" : {
          "estimated_diameter_min" : 0.0334622374,
          "estimated_diameter_max" : 0.0748238376
        },
        "meters" : {
          "estimated_diameter_min" : 33.4622374455,
          "estimated_diameter_max" : 74.8238376074
        },
        "miles" : {
          "estimated_diameter_min" : 0.0207924639,
          "estimated_diameter_max" : 0.0464933628
        },
        "feet" : {
          "estimated_diameter_min" : 109.7842471007,
          "estimated_diameter_max" : 245.4850393757
        }
      },
      "is_potentially_hazardous_asteroid" : false,
      "close_approach_data" : [ {
        "close_approach_date" : "2007-06-08",
        "epoch_date_close_approach" : 1181286000000,
        "relative_velocity" : {
          "kilometers_per_second" : "11.4934935447",
          "kilometers_per_hour" : "41376.5767607947",
          "miles_per_hour" : "25709.7957100616"
        },
        "miss_distance" : {
          "astronomical" : "0.1550788733",
          "lunar" : "60.3256797791",
          "kilometers" : "23199470",
          "miles" : "14415482"
        },
        "orbiting_body" : "Earth"
      } ],
      "orbital_data" : {
        "orbit_id" : "33",
        "orbit_determination_date" : "2017-04-06 08:28:31",
        "orbit_uncertainty" : "4",
        "minimum_orbit_intersection" : ".00157849",
        "jupiter_tisserand_invariant" : "4.523",
        "epoch_osculation" : "2458000.5",
        "eccentricity" : ".353518279457482",
        "semi_major_axis" : "1.475090298235249",
        "inclination" : "1.103625991175084",
        "ascending_node_longitude" : "173.4988117478319",
        "orbital_period" : "654.3744542557896",
        "perihelion_distance" : ".9536189139586995",
        "perihelion_argument" : "26.54002405391352",
        "aphelion_distance" : "1.996561682511798",
        "perihelion_time" : "2458140.196863248707",
        "mean_anomaly" : "283.1466472407918",
        "mean_motion" : ".5501437252916951",
        "equinox" : "J2000"
      }
    }, {
      "links" : {
        "self" : "https://api.nasa.gov/neo/rest/v1/neo/3781304?api_key=t0TVs3DtDT2H8Oy2Zy8m2eVrNsAVKAexjcZXUckd"
      },
      "neo_reference_id" : "3781304",
      "name" : "(2017 QB35)",
      "nasa_jpl_url" : "http://ssd.jpl.nasa.gov/sbdb.cgi?sstr=3781304",
      "absolute_magnitude_h" : 29.345,
      "estimated_diameter" : {
        "kilometers" : {
          "estimated_diameter_min" : 0.0035938089,
          "estimated_diameter_max" : 0.0080360009
        },
        "meters" : {
          "estimated_diameter_min" : 3.593808873,
          "estimated_diameter_max" : 8.0360009381
        },
        "miles" : {
          "estimated_diameter_min" : 0.0022330886,
          "estimated_diameter_max" : 0.0049933379
        },
        "feet" : {
          "estimated_diameter_min" : 11.7907119028,
          "estimated_diameter_max" : 26.3648333178
        }
      },
      "is_potentially_hazardous_asteroid" : false,
      "close_approach_data" : [ {
        "close_approach_date" : "2007-06-08",
        "epoch_date_close_approach" : 1181286000000,
        "relative_velocity" : {
          "kilometers_per_second" : "11.6296397565",
          "kilometers_per_hour" : "41866.7031235631",
          "miles_per_hour" : "26014.3411714162"
        },
        "miss_distance" : {
          "astronomical" : "0.3125353976",
          "lunar" : "121.5762710571",
          "kilometers" : "46754632",
          "miles" : "29051982"
        },
        "orbiting_body" : "Earth"
      } ],
      "orbital_data" : {
        "orbit_id" : "3",
        "orbit_determination_date" : "2017-09-05 07:19:54",
        "orbit_uncertainty" : "5",
        "minimum_orbit_intersection" : ".00240555",
        "jupiter_tisserand_invariant" : "6.439",
        "epoch_osculation" : "2458000.5",
        "eccentricity" : ".1428640958623025",
        "semi_major_axis" : ".9280320656465102",
        "inclination" : "5.325681281677517",
        "ascending_node_longitude" : "159.7608629697673",
        "orbital_period" : "326.5448963083647",
        "perihelion_distance" : ".7954496036566965",
        "perihelion_argument" : "315.5833375017925",
        "aphelion_distance" : "1.060614527636324",
        "perihelion_time" : "2458110.465932556814",
        "mean_anomaly" : "238.7678626492166",
        "mean_motion" : "1.102451773308509",
        "equinox" : "J2000"
      }
    } ]
  }
}